PLEIADES NEO 3          
1 48268U 21034A   26193.84794472  .00000861  00000+0  11601-3 0  9990
2 48268  97.8943 268.2454 0001398  93.5096 266.6276 14.81680302281452
PLEIADES NEO 4          
1 49070U 21073E   26193.81417630  .00000092  00000+0  18285-4 0  9992
2 49070  97.8940 268.2082 0001310  92.3488 267.7875 14.81673647265165
